[{"OBJECT_NAME":"NUSAT-41 (C PAYNE-G)","OBJECT_ID":"2023-084N","EPOCH":"2026-03-09T21:55:54.837696","MEAN_MOTION":15.29680045,"ECCENTRICITY":0.00062175,"INCLINATION":97.5351,"RA_OF_ASC_NODE":204.1011,"ARG_OF_PERICENTER":322.2064,"MEAN_ANOMALY":37.8738,"EPHEMERIS_TYPE":0,"CLASSIFICATION_TYPE":"U","NORAD_CAT_ID":56944,"ELEMENT_SET_NO":999,"REV_AT_EPOCH":15260,"BSTAR":0.00059912824,"MEAN_MOTION_DOT":0.0001718,"MEAN_MOTION_DDOT":0},{"OBJECT_NAME":"STARLINK-30269","OBJECT_ID":"2023-115H","EPOCH":"2026-03-09T03:29:50.983008","MEAN_MOTION":15.2673766,"ECCENTRICITY":0.00012961,"INCLINATION":43.0008,"RA_OF_ASC_NODE":5.0718,"ARG_OF_PERICENTER":296.3214,"MEAN_ANOMALY":63.7504,"EPHEMERIS_TYPE":0,"CLASSIFICATION_TYPE":"U","NORAD_CAT_ID":57528,"ELEMENT_SET_NO":999,"REV_AT_EPOCH":14226,"BSTAR":6.4078136e-5,"MEAN_MOTION_DOT":1.459e-5,"MEAN_MOTION_DDOT":0}]
